{
    "links": {
        "self": "http://www.neowsapp.com/rest/v1/neo/3836732?api_key=iIulBulltgU6a56xZRHN4H3l9WmuAYTsLGpBGhQ2"
    },
    "id": "3836732",
    "neo_reference_id": "3836732",
    "name": "(2018 XU)",
    "designation": "2018 XU",
    "nasa_jpl_url": "http://ssd.jpl.nasa.gov/sbdb.cgi?sstr=3836732",
    "absolute_magnitude_h": 24.1,
    "estimated_diameter": {
        "kilometers": {
            "estimated_diameter_min": 0.040230458,
            "estimated_diameter_max": 0.0899580388
        },
        "meters": {
            "estimated_diameter_min": 40.2304579834,
            "estimated_diameter_max": 89.9580388169
        },
        "miles": {
            "estimated_diameter_min": 0.0249980399,
            "estimated_diameter_max": 0.0558973165
        },
        "feet": {
            "estimated_diameter_min": 131.9896957704,
            "estimated_diameter_max": 295.1379320721
        }
    },
    "is_potentially_hazardous_asteroid": false,
    "close_approach_data": [
        {
            "close_approach_date": "2018-11-01",
            "close_approach_date_full": "2018-Nov-01 08:17",
            "epoch_date_close_approach": 1541060220000,
            "relative_velocity": {
                "kilometers_per_second": "25.8453323888",
                "kilometers_per_hour": "93043.1965996296",
                "miles_per_hour": "57813.4240204754"
            },
            "miss_distance": {
                "astronomical": "0.1453785827",
                "lunar": "56.5522686703",
                "kilometers": "21748326.315538849",
                "miles": "13513783.3300161562"
            },
            "orbiting_body": "Venus"
        },
        {
            "close_approach_date": "2018-11-21",
            "close_approach_date_full": "2018-Nov-21 11:51",
            "epoch_date_close_approach": 1542801060000,
            "relative_velocity": {
                "kilometers_per_second": "21.8434582336",
                "kilometers_per_hour": "78636.4496409935",
                "miles_per_hour": "48861.6317227606"
            },
            "miss_distance": {
                "astronomical": "0.0137034187",
                "lunar": "5.3306298743",
                "kilometers": "2050002.249238169",
                "miles": "1273812.3302139722"
            },
            "orbiting_body": "Earth"
        }
    ],
    "orbital_data": {
        "orbit_id": "2",
        "orbit_determination_date": "2019-01-21 07:51:18",
        "first_observation_date": "2018-12-04",
        "last_observation_date": "2018-12-11",
        "data_arc_in_days": 7,
        "observations_used": 24,
        "orbit_uncertainty": "9",
        "minimum_orbit_intersection": ".0132867",
        "jupiter_tisserand_invariant": "3.056",
        "epoch_osculation": "2458457.5",
        "eccentricity": ".7486149824724011",
        "semi_major_axis": "2.416804403433059",
        "inclination": "2.74166444088475",
        "ascending_node_longitude": "222.7253963624766",
        "orbital_period": "1372.33671419922",
        "perihelion_distance": ".6075484173177977",
        "perihelion_argument": "112.2178704995783",
        "aphelion_distance": "4.22606038954832",
        "perihelion_time": "2458400.152127330892",
        "mean_anomaly": "15.04385472403957",
        "mean_motion": ".2623262908258384",
        "equinox": "J2000",
        "orbit_class": {
            "orbit_class_type": "APO",
            "orbit_class_description": "Near-Earth asteroid orbits which cross the Earth’s orbit similar to that of 1862 Apollo",
            "orbit_class_range": "a (semi-major axis) > 1.0 AU; q (perihelion) < 1.017 AU"
        }
    },
    "is_sentry_object": false
}